CSS (TIANHE)            
1 48274U 21035A   23344.51287571  .00011547  00000+0  12485-3 0  9998
2 48274  41.4686 161.9913 0007661 309.7767  50.2398 15.63442038149406
